{
"type": "FeatureCollection",
"name": "culprit_visual",
"crs": { "type": "name", "properties": { "name": "urn:ogc:def:crs:OGC:1.3:CRS84" } },
"features": [
{ "type": "Feature", "properties": { "mmsi": 366953000, "vessel_name": "CG WALNUT", "vessel_type": 90, "callsign": "NZNE", "is_dark_ship": false, "cpa_timestamp_utc": "2023-11-17T23:18:55+00:00", "cpa_distance_meters": 8451.2, "speed_knots": 13.3, "course_deg": 252.6, "s_prox": 19.9, "s_time": 100.0, "s_type": 40.0, "s_align": 70.2, "s_gap": 0.0, "total_score": 52.5, "suspicion_level": "MEDIUM", "audit_rationale": "Active AIS transit passing within 8451m of origin; Passed inside estimated release window (0.1h from center); Vessel profile: Type 90. Composite suspicion: 52.5%." }, "geometry": { "type": "Point", "coordinates": [ -88.9492, 29.00984 ] } },
{ "type": "Feature", "properties": { "mmsi": 367332840, "vessel_name": "KARLA F", "vessel_type": 90, "callsign": "WDE3008", "is_dark_ship": false, "cpa_timestamp_utc": "2023-11-17T23:44:30+00:00", "cpa_distance_meters": 10914.4, "speed_knots": 9.8, "course_deg": 42.2, "s_prox": 10.8, "s_time": 91.8, "s_type": 40.0, "s_align": 99.4, "s_gap": 0.0, "total_score": 51.7, "suspicion_level": "MEDIUM", "audit_rationale": "Active AIS transit passing within 10914m of origin; Passed 0.3h outside estimated release window; Vessel profile: Type 90; Course aligned parallel with slick trail (0.6° diff). Composite suspicion: 51.7%." }, "geometry": { "type": "Point", "coordinates": [ -89.03597, 29.01349 ] } },
{ "type": "Feature", "properties": { "mmsi": 367376530, "vessel_name": "MATTERHORN TLP", "vessel_type": 90, "callsign": "WDE6150", "is_dark_ship": false, "cpa_timestamp_utc": "2023-11-17T23:30:19+00:00", "cpa_distance_meters": 25472.7, "speed_knots": 0.1, "course_deg": 227.7, "s_prox": 0.3, "s_time": 100.0, "s_type": 40.0, "s_align": 95.1, "s_gap": 0.0, "total_score": 50.3, "suspicion_level": "MEDIUM", "audit_rationale": "Active AIS transit passing within 25473m of origin; Passed inside estimated release window (0.1h from center); Vessel profile: Type 90; Course aligned parallel with slick trail (4.9° diff). Composite suspicion: 50.3%." }, "geometry": { "type": "Point", "coordinates": [ -88.82565, 28.74262 ] } },
{ "type": "Feature", "properties": { "mmsi": 367154130, "vessel_name": "MR SEAMAN", "vessel_type": 60, "callsign": "WCZ3468", "is_dark_ship": false, "cpa_timestamp_utc": "2023-11-17T23:40:24+00:00", "cpa_distance_meters": 10723.0, "speed_knots": 1.9, "course_deg": 237.5, "s_prox": 11.3, "s_time": 94.4, "s_type": 20.0, "s_align": 85.3, "s_gap": 0.0, "total_score": 47.5, "suspicion_level": "LOW", "audit_rationale": "Active AIS transit passing within 10723m of origin; Passed 0.3h outside estimated release window; Vessel profile: Type 60; Course aligned parallel with slick trail (14.7° diff). Composite suspicion: 47.5%." }, "geometry": { "type": "Point", "coordinates": [ -89.06255, 28.88629 ] } },
{ "type": "Feature", "properties": { "mmsi": 338444731, "vessel_name": "FULL CIRCLE II", "vessel_type": 37, "callsign": null, "is_dark_ship": false, "cpa_timestamp_utc": "2023-11-17T22:59:59+00:00", "cpa_distance_meters": 31965.3, "speed_knots": 15.2, "course_deg": 225.6, "s_prox": 0.1, "s_time": 89.6, "s_type": 15.0, "s_align": 97.2, "s_gap": 0.0, "total_score": 43.7, "suspicion_level": "LOW", "audit_rationale": "Active AIS transit passing within 31965m of origin; Passed 0.4h outside estimated release window; Vessel profile: Type 37; Course aligned parallel with slick trail (2.8° diff). Composite suspicion: 43.7%." }, "geometry": { "type": "Point", "coordinates": [ -89.19736, 29.14143 ] } },
{ "type": "Feature", "properties": { "mmsi": 368269780, "vessel_name": "GO GLORY", "vessel_type": 70, "callsign": "WDN3240", "is_dark_ship": false, "cpa_timestamp_utc": "2023-11-17T23:02:25+00:00", "cpa_distance_meters": 14242.8, "speed_knots": 0.1, "course_deg": 292.1, "s_prox": 4.7, "s_time": 91.0, "s_type": 65.0, "s_align": 30.7, "s_gap": 0.0, "total_score": 43.1, "suspicion_level": "LOW", "audit_rationale": "Active AIS transit passing within 14243m of origin; Passed 0.4h outside estimated release window; Vessel profile: Cargo. Composite suspicion: 43.1%." }, "geometry": { "type": "Point", "coordinates": [ -88.95618, 29.06346 ] } },
{ "type": "Feature", "properties": { "mmsi": 367594140, "vessel_name": "NGUYEN T J", "vessel_type": 30, "callsign": "WDH2075", "is_dark_ship": false, "cpa_timestamp_utc": "2023-11-17T23:58:45+00:00", "cpa_distance_meters": 14975.5, "speed_knots": 7.6, "course_deg": 217.2, "s_prox": 3.9, "s_time": 83.7, "s_type": 15.0, "s_align": 94.4, "s_gap": 0.0, "total_score": 42.7, "suspicion_level": "LOW", "audit_rationale": "Active AIS transit passing within 14976m of origin; Passed 0.6h outside estimated release window; Vessel profile: Type 30; Course aligned parallel with slick trail (5.6° diff). Composite suspicion: 42.7%." }, "geometry": { "type": "Point", "coordinates": [ -89.02474, 29.06086 ] } },
{ "type": "Feature", "properties": { "mmsi": 367724890, "vessel_name": "MISSISSIPPI III", "vessel_type": 30, "callsign": "WDI7052", "is_dark_ship": false, "cpa_timestamp_utc": "2023-11-17T23:17:50+00:00", "cpa_distance_meters": 16703.7, "speed_knots": 7.6, "course_deg": 356.0, "s_prox": 2.5, "s_time": 100.0, "s_type": 15.0, "s_align": 53.2, "s_gap": 0.0, "total_score": 41.0, "suspicion_level": "LOW", "audit_rationale": "Active AIS transit passing within 16704m of origin; Passed inside estimated release window (0.1h from center); Vessel profile: Type 30. Composite suspicion: 41.0%." }, "geometry": { "type": "Point", "coordinates": [ -89.13255, 28.97677 ] } },
{ "type": "Feature", "properties": { "mmsi": 367558730, "vessel_name": "BRETON ISLAND", "vessel_type": 90, "callsign": "WDG6600", "is_dark_ship": false, "cpa_timestamp_utc": "2023-11-17T22:17:14+00:00", "cpa_distance_meters": 13754.4, "speed_knots": 2.5, "course_deg": 204.0, "s_prox": 5.3, "s_time": 67.2, "s_type": 40.0, "s_align": 81.2, "s_gap": 0.0, "total_score": 39.9, "suspicion_level": "LOW", "audit_rationale": "Active AIS transit passing within 13754m of origin; Passed 1.1h outside estimated release window; Vessel profile: Type 90. Composite suspicion: 39.9%." }, "geometry": { "type": "Point", "coordinates": [ -89.10782, 28.92038 ] } },
{ "type": "Feature", "properties": { "mmsi": 338176375, "vessel_name": "BOOGIE", "vessel_type": 37, "callsign": null, "is_dark_ship": false, "cpa_timestamp_utc": "2023-11-17T22:58:06+00:00", "cpa_distance_meters": 33202.0, "speed_knots": 28.5, "course_deg": 69.0, "s_prox": 0.0, "s_time": 88.2, "s_type": 15.0, "s_align": 73.8, "s_gap": 0.0, "total_score": 39.8, "suspicion_level": "LOW", "audit_rationale": "Active AIS transit passing within 33202m of origin; Passed 0.4h outside estimated release window; Vessel profile: Type 37. Composite suspicion: 39.8%." }, "geometry": { "type": "Point", "coordinates": [ -89.21254, 29.14384 ] } },
{ "type": "Feature", "properties": { "mmsi": 368152930, "vessel_name": "KIMBERLY CELESTE", "vessel_type": 30, "callsign": "WDL6666", "is_dark_ship": false, "cpa_timestamp_utc": "2023-11-17T22:17:19+00:00", "cpa_distance_meters": 14212.3, "speed_knots": 6.0, "course_deg": 41.5, "s_prox": 4.7, "s_time": 67.2, "s_type": 15.0, "s_align": 98.7, "s_gap": 0.0, "total_score": 38.6, "suspicion_level": "LOW", "audit_rationale": "Active AIS transit passing within 14212m of origin; Passed 1.1h outside estimated release window; Vessel profile: Type 30; Course aligned parallel with slick trail (1.3° diff). Composite suspicion: 38.6%." }, "geometry": { "type": "Point", "coordinates": [ -89.07298, 29.02418 ] } },
{ "type": "Feature", "properties": { "mmsi": 366701330, "vessel_name": "JAMAL", "vessel_type": 37, "callsign": "WCV2688", "is_dark_ship": false, "cpa_timestamp_utc": "2023-11-17T22:59:38+00:00", "cpa_distance_meters": 33730.6, "speed_knots": 0.1, "course_deg": 360.0, "s_prox": 0.0, "s_time": 89.2, "s_type": 15.0, "s_align": 57.2, "s_gap": 0.0, "total_score": 37.6, "suspicion_level": "LOW", "audit_rationale": "Active AIS transit passing within 33731m of origin; Passed 0.4h outside estimated release window; Vessel profile: Type 37. Composite suspicion: 37.6%." }, "geometry": { "type": "Point", "coordinates": [ -89.21328, 29.14999 ] } },
{ "type": "Feature", "properties": { "mmsi": 368238290, "vessel_name": "A.B. CENAC", "vessel_type": 0, "callsign": "WDM7894", "is_dark_ship": false, "cpa_timestamp_utc": "2023-11-17T22:17:41+00:00", "cpa_distance_meters": 24372.3, "speed_knots": 1.4, "course_deg": 22.7, "s_prox": 0.4, "s_time": 67.4, "s_type": 25.0, "s_align": 79.9, "s_gap": 0.0, "total_score": 36.1, "suspicion_level": "LOW", "audit_rationale": "Active AIS transit passing within 24372m of origin; Passed 1.1h outside estimated release window; Vessel profile: Type 0. Composite suspicion: 36.1%." }, "geometry": { "type": "Point", "coordinates": [ -89.15937, 29.07674 ] } },
{ "type": "Feature", "properties": { "mmsi": 367155810, "vessel_name": "OUR MOTHER", "vessel_type": 30, "callsign": "WDD5260", "is_dark_ship": false, "cpa_timestamp_utc": "2023-11-17T23:32:49+00:00", "cpa_distance_meters": 28566.4, "speed_knots": 2.8, "course_deg": 146.1, "s_prox": 0.1, "s_time": 99.4, "s_type": 15.0, "s_align": 23.3, "s_gap": 0.0, "total_score": 35.6, "suspicion_level": "LOW", "audit_rationale": "Active AIS transit passing within 28566m of origin; Passed 0.1h outside estimated release window; Vessel profile: Type 30. Composite suspicion: 35.6%." }, "geometry": { "type": "Point", "coordinates": [ -88.76551, 29.12196 ] } },
{ "type": "Feature", "properties": { "mmsi": 368132210, "vessel_name": "ENTERPRISE", "vessel_type": 37, "callsign": "WDL4517", "is_dark_ship": false, "cpa_timestamp_utc": "2023-11-17T22:17:54+00:00", "cpa_distance_meters": 33729.0, "speed_knots": 0.0, "course_deg": 360.0, "s_prox": 0.0, "s_time": 67.4, "s_type": 15.0, "s_align": 57.2, "s_gap": 0.0, "total_score": 31.1, "suspicion_level": "LOW", "audit_rationale": "Active AIS transit passing within 33729m of origin; Passed 1.1h outside estimated release window; Vessel profile: Type 37. Composite suspicion: 31.1%." }, "geometry": { "type": "Point", "coordinates": [ -89.21245, 29.1507 ] } }
]
}
