{
  "type": "FeatureCollection",
  "metadata": {
    "module": "Oil Spill Backtracking & Origin Identification",
    "generated_at": "2026-09-26T17:47:19.165682Z",
    "total_backtrack_hours": 6,
    "warning": null
  },
  "features": [
    {
      "type": "Feature",
      "geometry": {
        "type": "Polygon",
        "coordinates": [
          [
            [
              -88.96327073026045,
              28.92448526560146
            ],
            [
              -88.96333530256545,
              28.924340776176802
            ],
            [
              -88.96341543049006,
              28.924202446981983
            ],
            [
              -88.96351036522724,
              28.924071570619937
            ],
            [
              -88.9636192196189,
              28.923949370046728
            ],
            [
              -88.96374097644741,
              28.92383698714465
            ],
            [
              -88.96387449794162,
              28.923735472052975
            ],
            [
              -88.96401853640904,
              28.92364577335609
            ],
            [
              -88.96417174589462,
              28.92356872922053
            ],
            [
              -88.96433269475715,
              28.923505059563862
            ],
            [
              -88.96449987904599,
              28.923455359328354
            ],
            [
              -88.96467173655299,
              28.923420092922424
            ],
            [
              -88.9648466614083,
              28.9233995898817
            ],
            [
              -88.96502301908426,
              28.923394041790107
            ],
            [
              -88.96519916166643,
              28.92340350049
            ],
            [
              -88.96537344325,
              28.923427877597767
            ],
            [
              -88.96554423531724,
              28.92346694532957
            ],
            [
              -88.9657099419526,
              28.92352033862953
            ],
            [
              -88.9658690147535,
              28.92358755858042
            ],
            [
              -88.96601996729733,
              28.923667977065058
            ],
            [
              -88.96616138902961,
              28.923760842634856
            ],
            [
              -88.96629195844385,
              28.923865287530663
            ],
            [
              -88.96641045542964,
              28.92398033579051
            ],
            [
              -88.96651577267379,
              28.924104912368314
            ],
            [
              -88.96660692600801,
              28.924237853178514
            ],
            [
              -88.9666830636064,
              28.924377915972872
            ],
            [
              -88.96674347394669,
              28.924523791947585
            ],
            [
              -88.97274373096568,
              28.941523715727087
            ],
            [
              -88.97278850067742,
              28.94167674761811
            ],
            [
              -88.972815957818,
              28.9418329087015
            ],
            [
              -88.97282583652527,
              28.941990687344468
            ],
            [
              -88.97281804109356,
              28.942148556249577
            ],
            [
              -88.97279264690316,
              28.942304987238785
            ],
            [
              -88.97274989969361,
              28.942458466046485
            ],
            [
              -88.97269021318805,
              28.942607506977907
            ],
            [
              -88.972614165091,
              28.942750667291367
            ],
            [
              -88.97252249149871,
              28.942886561164855
            ],
            [
              -88.97241607977547,
              28.943013873111862
            ],
            [
              -88.97229595996565,
              28.94313137071648
            ],
            [
              -88.97216329482362,
              28.943237916564527
            ],
            [
              -88.97201936855858,
              28.94333247925505
            ],
            [
              -88.97186557440313,
              28.94341414338564
            ],
            [
              -88.97170340112591,
              28.94348211841486
            ],
            [
              -88.97153441861873,
              28.94353574631586
            ],
            [
              -88.97136026269816,
              28.94357450794715
            ],
            [
              -88.97118261926828,
              28.943598028078753
            ],
            [
              -88.97100320799845,
              28.943606079025052
            ],
            [
              -88.97082376567388,
              28.94359858284922
            ],
            [
              -88.97064602938045,
              28.943575612117748
            ],
            [
              -88.97047171968653,
              28.94353738919791
            ],
            [
              -88.970302523985,
              28.943484284104834
            ],
            [
              -88.95930239422323,
              28.939484227988725
            ],
            [
              -88.95913689097085,
              28.939415294818588
            ],
            [
              -88.9589800699197,
              28.939332125304357
            ],
            [
              -88.95883350854223,
              28.93923555606473
            ],
            [
              -88.95869868109507,
              28.93912655850645
            ],
            [
              -88.95857694378881,
              28.939006229051635
            ],
            [
              -88.95846952114582,
              28.93887577810769
            ],
            [
              -88.95837749368346,
              28.93873651789051
            ],
            [
              -88.95830178704634,
              28.93858984922387
            ],
            [
              -88.95824316269726,
              28.938437247447368
            ],
            [
              -88.95820221025991,
              28.93828024757531
            ],
            [
              -88.95817934159071,
              28.93812042885531
            ],
            [
              -88.95817478663915,
              28.937959398882345
            ],
            [
              -88.95818859113793,
              28.937798777427886
            ],
            [
              -88.95822061614652,
              28.93764018014686
            ],
            [
              -88.95827053945193,
              28.937485202326304
            ],
            [
              -88.96327073026045,
              28.92448526560146
            ]
          ]
        ]
      },
      "properties": {
        "layer": "detection_footprint",
        "timestamp": "2023-11-17T23:54:16+00:00",
        "hours_prior": 0.0,
        "incident_name": "Oil Spill Detection"
      }
    },
    {
      "type": "Feature",
      "geometry": {
        "type": "Polygon",
        "coordinates": [
          [
            [
              -88.96726515260144,
              28.91849003767016
            ],
            [
              -88.96794888681913,
              28.91852059066941
            ],
            [
              -88.96862027353788,
              28.918596884614722
            ],
            [
              -88.96916193400402,
              28.918688815949533
            ],
            [
              -88.96969023821751,
              28.918839620753555
            ],
            [
              -88.97019880748755,
              28.919047478225078
            ],
            [
              -88.9724342200852,
              28.920107964064922
            ],
            [
              -88.97275948183477,
              28.920277146826635
            ],
            [
              -88.97543739931524,
              28.921797303686986
            ],
            [
              -88.9758789974389,
              28.922079568342298
            ],
            [
              -88.97628862318437,
              28.922406507154772
            ],
            [
              -88.976661775875,
              28.922774527953017
            ],
            [
              -88.97699435557412,
              28.923179587185963
            ],
            [
              -88.97728270813228,
              28.923617234350537
            ],
            [
              -88.97752366533643,
              28.924082660890633
            ],
            [
              -88.97960649004347,
              28.928681278444344
            ],
            [
              -88.9798187953222,
              28.92923535796867
            ],
            [
              -88.97996396762537,
              28.929810686268898
            ],
            [
              -88.98138303500818,
              28.93727795616636
            ],
            [
              -88.98144439589791,
              28.937696845371516
            ],
            [
              -88.98147010047823,
              28.938119423884384
            ],
            [
              -88.98145996446445,
              28.938542662098882
            ],
            [
              -88.98124634141757,
              28.941760359242437
            ],
            [
              -88.98123970884403,
              28.94184847509558
            ],
            [
              -88.98109475034794,
              28.94357081091101
            ],
            [
              -88.98103653650976,
              28.944018965820003
            ],
            [
              -88.98093809580598,
              28.944460033956744
            ],
            [
              -88.98080023242498,
              28.944890412117893
            ],
            [
              -88.98062407260953,
              28.945306584429357
            ],
            [
              -88.98041105545619,
              28.945705151068445
            ],
            [
              -88.98029661453822,
              28.94589779328036
            ],
            [
              -88.98019185166216,
              28.946066427272196
            ],
            [
              -88.97873463730669,
              28.948311376613017
            ],
            [
              -88.97845397940156,
              28.948701351866774
            ],
            [
              -88.97813718644008,
              28.949062588323695
            ],
            [
              -88.97778718368285,
              28.949391750332715
            ],
            [
              -88.97740720304914,
              28.949685798417665
            ],
            [
              -88.97700075327342,
              28.949942017343716
            ],
            [
              -88.97657158750573,
              28.950158041189837
            ],
            [
              -88.97612366865518,
              28.95033187519565
            ],
            [
              -88.97314057539346,
              28.95132751118198
            ],
            [
              -88.97267506054433,
              28.95145823417307
            ],
            [
              -88.9721990956968,
              28.951543381334375
            ],
            [
              -88.97171713193276,
              28.951582156394913
            ],
            [
              -88.97123367643421,
              28.95157419674185
            ],
            [
              -88.97075325033337,
              28.95151957681148
            ],
            [
              -88.96018653890759,
              28.949797240996052
            ],
            [
              -88.95972849456102,
              28.94970037336634
            ],
            [
              -88.95928151842794,
              28.949561088415383
            ],
            [
              -88.95884952937985,
              28.949380607326546
            ],
            [
              -88.95843631488866,
              28.949160512471117
            ],
            [
              -88.95804549782008,
              28.94890273353479
            ],
            [
              -88.95768050466995,
              28.94860953059915
            ],
            [
              -88.95734453552245,
              28.94828347432634
            ],
            [
              -88.95704053599329,
              28.947927423420747
            ],
            [
              -88.9535539026925,
              28.94343371004184
            ],
            [
              -88.95333137708971,
              28.943123093161915
            ],
            [
              -88.95205726820299,
              28.94119285634551
            ],
            [
              -88.95179733059355,
              28.94075142044854
            ],
            [
              -88.95158392588799,
              28.94028570417914
            ],
            [
              -88.9514192942656,
              28.939800596313972
            ],
            [
              -88.95130516391862,
              28.93930118918964
            ],
            [
              -88.95116783481706,
              28.938517268901553
            ],
            [
              -88.95110205586522,
              28.937958022654172
            ],
            [
              -88.95109957660257,
              28.937394926668595
            ],
            [
              -88.95116042847441,
              28.93683512287671
            ],
            [
              -88.95232009644316,
              28.929854226880614
            ],
            [
              -88.9524065398381,
              28.929442077238793
            ],
            [
              -88.9525273585122,
              28.929038663511005
            ],
            [
              -88.95322163341454,
              28.927032132749286
            ],
            [
              -88.95341224095982,
              28.926560417161735
            ],
            [
              -88.95364979852017,
              28.926110513574976
            ],
            [
              -88.95464161980924,
              28.924443490869898
            ],
            [
              -88.95488794757675,
              28.92406879586856
            ],
            [
              -88.95516685452219,
              28.92371767675934
            ],
            [
              -88.95547609741135,
              28.923392957575153
            ],
            [
              -88.9558131890196,
              28.92309725001569
            ],
            [
              -88.95862843560163,
              28.920842763931706
            ],
            [
              -88.95902723551126,
              28.920554426250906
            ],
            [
              -88.95945244863289,
              28.920306688915648
            ],
            [
              -88.9598999558422,
              28.920101951806913
            ],
            [
              -88.96289067849845,
              28.918907951562772
            ],
            [
              -88.96331076013387,
              28.91876154949286
            ],
            [
              -88.96374219191442,
              28.918653065553023
            ],
            [
              -88.96418155858912,
              28.918583358511444
            ],
            [
              -88.96462538209363,
              28.918552980175043
            ],
            [
              -88.96726515260144,
              28.91849003767016
            ]
          ]
        ]
      },
      "properties": {
        "layer": "primary_origin_candidate",
        "timestamp": "2023-11-17T23:16:46+00:00 to 2023-11-17T23:24:16+00:00",
        "hours_prior": 0.5,
        "centroid_latitude": 28.935370292663574,
        "centroid_longitude": -88.9677995300293,
        "solver_method": "morphology_diffusion_correlated",
        "confidence_level": "high",
        "description": "High-confidence origin search area for AIS vessel matching"
      }
    },
    {
      "type": "Feature",
      "geometry": {
        "type": "Polygon",
        "coordinates": [
          [
            [
              -88.96549987792969,
              28.91866409301758
            ],
            [
              -88.96600395444707,
              28.91868956722464
            ],
            [
              -88.96650289458464,
              28.91876573027173
            ],
            [
              -88.96699161430061,
              28.91889180608156
            ],
            [
              -88.96746513369611,
              28.91906650998162
            ],
            [
              -88.96791862775868,
              28.919288061794568
            ],
            [
              -88.96834747552766,
              28.91955420397771
            ],
            [
              -88.96874730718031,
              28.919862224626613
            ],
            [
              -88.96938817632093,
              28.92040963368423
            ],
            [
              -88.96940409068073,
              28.920423285016952
            ],
            [
              -88.97003733042682,
              28.920968786725936
            ],
            [
              -88.97040904560822,
              28.921323878738384
            ],
            [
              -88.97074233639871,
              28.921715260600973
            ],
            [
              -88.97103367974782,
              28.922138795211502
            ],
            [
              -88.97127999601052,
              28.922590005597154
            ],
            [
              -88.97147868150061,
              28.923064122238305
            ],
            [
              -88.97403452866858,
              28.9301670885469
            ],
            [
              -88.974050536891,
              28.930212255291163
            ],
            [
              -88.97595788552381,
              28.93567680912417
            ],
            [
              -88.97603520841628,
              28.93591777290615
            ],
            [
              -88.9766760775569,
              28.938103594439355
            ],
            [
              -88.97678794644162,
              28.938565393505737
            ],
            [
              -88.9768554744553,
              28.939035726358558
            ],
            [
              -88.97687805175781,
              28.939510345458984
            ],
            [
              -88.97687805175781,
              28.941150665283203
            ],
            [
              -88.9768533297159,
              28.94164726294715
            ],
            [
              -88.97677940806187,
              28.94213894984779
            ],
            [
              -88.97665701779346,
              28.94262086378346
            ],
            [
              -88.97648736920557,
              28.943088239195546
            ],
            [
              -88.97627213992202,
              28.94353645429424
            ],
            [
              -88.97601345830574,
              28.943961076762555
            ],
            [
              -88.97571388241187,
              28.94435790758671
            ],
            [
              -88.97537637469149,
              28.944723022579396
            ],
            [
              -88.97500427269664,
              28.945052811185352
            ],
            [
              -88.97460125607574,
              28.94534401218548
            ],
            [
              -88.97417131018632,
              28.945593745946447
            ],
            [
              -88.9737186866845,
              28.94579954289685
            ],
            [
              -88.97324786148116,
              28.945959367948355
            ],
            [
              -88.97133288345381,
              28.94650486965734
            ],
            [
              -88.97088283977037,
              28.94661084199994
            ],
            [
              -88.97042493137154,
              28.946674790046746
            ],
            [
              -88.96996307373047,
              28.946696166992187
            ],
            [
              -88.96549987792969,
              28.946696166992187
            ],
            [
              -88.96506066793178,
              28.946676839093193
            ],
            [
              -88.96462485353646,
              28.946619004823283
            ],
            [
              -88.96419580409439,
              28.946523111308426
            ],
            [
              -88.96377683665526,
              28.946389899916696
            ],
            [
              -88.95931364085448,
              28.94475148744111
            ],
            [
              -88.95906293642706,
              28.94465169921636
            ],
            [
              -88.95778882754034,
              28.944104290158744
            ],
            [
              -88.95734094828798,
              28.943884786289672
            ],
            [
              -88.95691716689417,
              28.943621751874637
            ],
            [
              -88.95652170045457,
              28.943317804398287
            ],
            [
              -88.95588083131395,
              28.942772302689303
            ],
            [
              -88.95587427485094,
              28.942766712140966
            ],
            [
              -88.95523340571032,
              28.94221930308335
            ],
            [
              -88.95488398247814,
              28.94189056760331
            ],
            [
              -88.95456767382818,
              28.941529856570774
            ],
            [
              -88.9542873918701,
              28.941140490887896
            ],
            [
              -88.9540457170322,
              28.94072605526714
            ],
            [
              -88.95384487430461,
              28.940290365228467
            ],
            [
              -88.95368671275483,
              28.939837431971576
            ],
            [
              -88.9535726885042,
              28.939371425446627
            ],
            [
              -88.95350385132204,
              28.938896635963403
            ],
            [
              -88.95348083496094,
              28.938417434692383
            ],
            [
              -88.95348083496094,
              28.93732452392578
            ],
            [
              -88.95350233547072,
              28.936861336246942
            ],
            [
              -88.95356665209127,
              28.936402132076587
            ],
            [
              -88.95367323168655,
              28.93595086066422
            ],
            [
              -88.95382115765032,
              28.93551140303601
            ],
            [
              -88.95701024456439,
              28.927315525960815
            ],
            [
              -88.9589257589276,
              28.92239700341785
            ],
            [
              -88.95912678668033,
              28.921947605765805
            ],
            [
              -88.95937103502169,
              28.921520156172562
            ],
            [
              -88.95965613600892,
              28.921118798683395
            ],
            [
              -88.95997932564029,
              28.920747424385418
            ],
            [
              -88.96033747065172,
              28.92040963368423
            ],
            [
              -88.96097833979235,
              28.919862224626613
            ],
            [
              -88.96137817144499,
              28.91955420397771
            ],
            [
              -88.96180701921398,
              28.919288061794568
            ],
            [
              -88.96226051327655,
              28.91906650998162
            ],
            [
              -88.96273403267205,
              28.91889180608156
            ],
            [
              -88.96322275238802,
              28.91876573027173
            ],
            [
              -88.96372169252558,
              28.91868956722464
            ],
            [
              -88.96422576904297,
              28.91866409301758
            ],
            [
              -88.96549987792969,
              28.91866409301758
            ]
          ]
        ]
      },
      "properties": {
        "layer": "hourly_backtrack_corridor",
        "step_index": 0,
        "timestamp": "2023-11-17T23:54:16Z",
        "hours_prior": 0,
        "active_particles": 500,
        "centroid_latitude": 28.9256311416626,
        "centroid_longitude": -88.96662292480468
      }
    },
    {
      "type": "Feature",
      "geometry": {
        "type": "Polygon",
        "coordinates": [
          [
            [
              -88.96726515260144,
              28.91849003767016
            ],
            [
              -88.96794888681913,
              28.91852059066941
            ],
            [
              -88.96862027353788,
              28.918596884614722
            ],
            [
              -88.96916193400402,
              28.918688815949533
            ],
            [
              -88.96969023821751,
              28.918839620753555
            ],
            [
              -88.97019880748755,
              28.919047478225078
            ],
            [
              -88.9724342200852,
              28.920107964064922
            ],
            [
              -88.97275948183477,
              28.920277146826635
            ],
            [
              -88.97543739931524,
              28.921797303686986
            ],
            [
              -88.9758789974389,
              28.922079568342298
            ],
            [
              -88.97628862318437,
              28.922406507154772
            ],
            [
              -88.976661775875,
              28.922774527953017
            ],
            [
              -88.97699435557412,
              28.923179587185963
            ],
            [
              -88.97728270813228,
              28.923617234350537
            ],
            [
              -88.97752366533643,
              28.924082660890633
            ],
            [
              -88.97960649004347,
              28.928681278444344
            ],
            [
              -88.9798187953222,
              28.92923535796867
            ],
            [
              -88.97996396762537,
              28.929810686268898
            ],
            [
              -88.98138303500818,
              28.93727795616636
            ],
            [
              -88.98144439589791,
              28.937696845371516
            ],
            [
              -88.98147010047823,
              28.938119423884384
            ],
            [
              -88.98145996446445,
              28.938542662098882
            ],
            [
              -88.98124634141757,
              28.941760359242437
            ],
            [
              -88.98123970884403,
              28.94184847509558
            ],
            [
              -88.98109475034794,
              28.94357081091101
            ],
            [
              -88.98103653650976,
              28.944018965820003
            ],
            [
              -88.98093809580598,
              28.944460033956744
            ],
            [
              -88.98080023242498,
              28.944890412117893
            ],
            [
              -88.98062407260953,
              28.945306584429357
            ],
            [
              -88.98041105545619,
              28.945705151068445
            ],
            [
              -88.98029661453822,
              28.94589779328036
            ],
            [
              -88.98019185166216,
              28.946066427272196
            ],
            [
              -88.97873463730669,
              28.948311376613017
            ],
            [
              -88.97845397940156,
              28.948701351866774
            ],
            [
              -88.97813718644008,
              28.949062588323695
            ],
            [
              -88.97778718368285,
              28.949391750332715
            ],
            [
              -88.97740720304914,
              28.949685798417665
            ],
            [
              -88.97700075327342,
              28.949942017343716
            ],
            [
              -88.97657158750573,
              28.950158041189837
            ],
            [
              -88.97612366865518,
              28.95033187519565
            ],
            [
              -88.97314057539346,
              28.95132751118198
            ],
            [
              -88.97267506054433,
              28.95145823417307
            ],
            [
              -88.9721990956968,
              28.951543381334375
            ],
            [
              -88.97171713193276,
              28.951582156394913
            ],
            [
              -88.97123367643421,
              28.95157419674185
            ],
            [
              -88.97075325033337,
              28.95151957681148
            ],
            [
              -88.96018653890759,
              28.949797240996052
            ],
            [
              -88.95972849456102,
              28.94970037336634
            ],
            [
              -88.95928151842794,
              28.949561088415383
            ],
            [
              -88.95884952937985,
              28.949380607326546
            ],
            [
              -88.95843631488866,
              28.949160512471117
            ],
            [
              -88.95804549782008,
              28.94890273353479
            ],
            [
              -88.95768050466995,
              28.94860953059915
            ],
            [
              -88.95734453552245,
              28.94828347432634
            ],
            [
              -88.95704053599329,
              28.947927423420747
            ],
            [
              -88.9535539026925,
              28.94343371004184
            ],
            [
              -88.95333137708971,
              28.943123093161915
            ],
            [
              -88.95205726820299,
              28.94119285634551
            ],
            [
              -88.95179733059355,
              28.94075142044854
            ],
            [
              -88.95158392588799,
              28.94028570417914
            ],
            [
              -88.9514192942656,
              28.939800596313972
            ],
            [
              -88.95130516391862,
              28.93930118918964
            ],
            [
              -88.95116783481706,
              28.938517268901553
            ],
            [
              -88.95110205586522,
              28.937958022654172
            ],
            [
              -88.95109957660257,
              28.937394926668595
            ],
            [
              -88.95116042847441,
              28.93683512287671
            ],
            [
              -88.95232009644316,
              28.929854226880614
            ],
            [
              -88.9524065398381,
              28.929442077238793
            ],
            [
              -88.9525273585122,
              28.929038663511005
            ],
            [
              -88.95322163341454,
              28.927032132749286
            ],
            [
              -88.95341224095982,
              28.926560417161735
            ],
            [
              -88.95364979852017,
              28.926110513574976
            ],
            [
              -88.95464161980924,
              28.924443490869898
            ],
            [
              -88.95488794757675,
              28.92406879586856
            ],
            [
              -88.95516685452219,
              28.92371767675934
            ],
            [
              -88.95547609741135,
              28.923392957575153
            ],
            [
              -88.9558131890196,
              28.92309725001569
            ],
            [
              -88.95862843560163,
              28.920842763931706
            ],
            [
              -88.95902723551126,
              28.920554426250906
            ],
            [
              -88.95945244863289,
              28.920306688915648
            ],
            [
              -88.9598999558422,
              28.920101951806913
            ],
            [
              -88.96289067849845,
              28.918907951562772
            ],
            [
              -88.96331076013387,
              28.91876154949286
            ],
            [
              -88.96374219191442,
              28.918653065553023
            ],
            [
              -88.96418155858912,
              28.918583358511444
            ],
            [
              -88.96462538209363,
              28.918552980175043
            ],
            [
              -88.96726515260144,
              28.91849003767016
            ]
          ]
        ]
      },
      "properties": {
        "layer": "hourly_backtrack_corridor",
        "step_index": 1,
        "timestamp": "2023-11-17T22:54:16Z",
        "hours_prior": 1,
        "active_particles": 500,
        "centroid_latitude": 28.935370292663574,
        "centroid_longitude": -88.9677995300293
      }
    },
    {
      "type": "Feature",
      "geometry": {
        "type": "Polygon",
        "coordinates": [
          [
            [
              -88.96675232590242,
              28.918357535536938
            ],
            [
              -88.96731260787361,
              28.918289284827853
            ],
            [
              -88.96787701219966,
              28.91828461542983
            ],
            [
              -88.96843834669775,
              28.91834358684482
            ],
            [
              -88.97199364454931,
              28.918921513480562
            ],
            [
              -88.97249364314087,
              28.919029295009246
            ],
            [
              -88.97298001432084,
              28.91918759385565
            ],
            [
              -88.97344766840064,
              28.919394753482827
            ],
            [
              -88.97389171155898,
              28.91964860604441
            ],
            [
              -88.97430749705381,
              28.919946495070327
            ],
            [
              -88.97825189402647,
              28.923089805617202
            ],
            [
              -88.9787438204805,
              28.923538512667026
            ],
            [
              -88.9816735079805,
              28.92659217782816
            ],
            [
              -88.98198851827169,
              28.92695373434896
            ],
            [
              -88.98226744383345,
              28.92734380502498
            ],
            [
              -88.98250771905711,
              28.927758801914344
            ],
            [
              -88.98270713384696,
              28.928194907799284
            ],
            [
              -88.98286385394904,
              28.92864811129761
            ],
            [
              -88.98297643782303,
              28.92911424376012
            ],
            [
              -88.98304384990172,
              28.929589017614642
            ],
            [
              -88.9830654701164,
              28.930068065803873
            ],
            [
              -88.98303495253828,
              28.940697719734537
            ],
            [
              -88.98300854143953,
              28.94119680270757
            ],
            [
              -88.98293243815466,
              28.94169075579253
            ],
            [
              -88.98280740305094,
              28.942174643778475
            ],
            [
              -88.98112130685954,
              28.947570533060702
            ],
            [
              -88.98094060066171,
              28.94805816126898
            ],
            [
              -88.98071022376827,
              28.948524382768277
            ],
            [
              -88.98043266826744,
              28.94896415423551
            ],
            [
              -88.98011093659917,
              28.949372718469238
            ],
            [
              -88.97974850907652,
              28.949745655850375
            ],
            [
              -88.9793493062374,
              28.95007893215119
            ],
            [
              -88.9789176464346,
              28.9503689421753
            ],
            [
              -88.97845819912212,
              28.950612548756677
            ],
            [
              -88.97549036464946,
              28.951993469166833
            ],
            [
              -88.9750705288678,
              28.952166089535023
            ],
            [
              -88.974636767672,
              28.95229992189314
            ],
            [
              -88.97419265629316,
              28.95239386314203
            ],
            [
              -88.97374185527266,
              28.952447138980812
            ],
            [
              -88.97328808029063,
              28.952459310288976
            ],
            [
              -88.97283507153968,
              28.952430276745794
            ],
            [
              -88.96156645581702,
              28.9511924074831
            ],
            [
              -88.96097640716714,
              28.951091541325155
            ],
            [
              -88.95640639984292,
              28.950025333439413
            ],
            [
              -88.9558692465324,
              28.94986783726515
            ],
            [
              -88.95535306401636,
              28.949651286268768
            ],
            [
              -88.95137814946558,
              28.947715327406463
            ],
            [
              -88.95097003016812,
              28.947492506172857
            ],
            [
              -88.95058437493987,
              28.947232735681776
            ],
            [
              -88.95022451909175,
              28.946938262539227
            ],
            [
              -88.9498935748106,
              28.946611633474546
            ],
            [
              -88.94959440424375,
              28.9462556733152
            ],
            [
              -88.94932959474586,
              28.945873460556477
            ],
            [
              -88.94910143650239,
              28.94546830073733
            ],
            [
              -88.94891190272317,
              28.94504369785269
            ],
            [
              -88.94664597254739,
              28.93925870944937
            ],
            [
              -88.94647943603145,
              28.938756883324373
            ],
            [
              -88.94636682334568,
              28.93824027684564
            ],
            [
              -88.9463093937876,
              28.937714666993447
            ],
            [
              -88.9463077895664,
              28.937185931428782
            ],
            [
              -88.94636202862137,
              28.936659982766095
            ],
            [
              -88.9464715044213,
              28.936142702455147
            ],
            [
              -88.94810419485098,
              28.93004109417878
            ],
            [
              -88.94825774183472,
              28.92956432458388
            ],
            [
              -88.94845821977304,
              28.929105309857437
            ],
            [
              -88.94870361678223,
              28.928668656412793
            ],
            [
              -88.94899147019608,
              28.928258746258035
            ],
            [
              -88.94931889127983,
              28.92787969302066
            ],
            [
              -88.94968259421982,
              28.927535300665525
            ],
            [
              -88.95568692771592,
              28.922394996100095
            ],
            [
              -88.95603996267425,
              28.922119184092008
            ],
            [
              -88.95641626857143,
              28.921876079552018
            ],
            [
              -88.95681282433421,
              28.92166763418119
            ],
            [
              -88.9614743843928,
              28.91947799795072
            ],
            [
              -88.96187634816033,
              28.919310150610755
            ],
            [
              -88.96229139548431,
              28.919177926109224
            ],
            [
              -88.96271637619539,
              28.919082328017407
            ],
            [
              -88.96675232590242,
              28.918357535536938
            ]
          ]
        ]
      },
      "properties": {
        "layer": "hourly_backtrack_corridor",
        "step_index": 2,
        "timestamp": "2023-11-17T21:54:16Z",
        "hours_prior": 2,
        "active_particles": 500,
        "centroid_latitude": 28.941905555725096,
        "centroid_longitude": -88.96789520263673
      }
    },
    {
      "type": "Feature",
      "geometry": {
        "type": "Polygon",
        "coordinates": [
          [
            [
              -88.96240202220551,
              28.914858343382804
            ],
            [
              -88.96284275056314,
              28.914819719204154
            ],
            [
              -88.96328516787312,
              28.914820205236744
            ],
            [
              -88.96372581030323,
              28.914859797675263
            ],
            [
              -88.96628928686573,
              28.9152050277778
            ],
            [
              -88.96642965112763,
              28.915225963224447
            ],
            [
              -88.9683522585495,
              28.91554067574886
            ],
            [
              -88.96883205011555,
              28.91564361313281
            ],
            [
              -88.96929944073838,
              28.915793085730858
            ],
            [
              -88.96974992858532,
              28.91598765384654
            ],
            [
              -88.97017917462856,
              28.916225443430495
            ],
            [
              -88.970583044438,
              28.916504164131005
            ],
            [
              -88.97095764800343,
              28.9168211313543
            ],
            [
              -88.97129937720246,
              28.91717329212214
            ],
            [
              -88.97667810034699,
              28.92329015918757
            ],
            [
              -88.9770153869818,
              28.923718782377
            ],
            [
              -88.97730398078463,
              28.92418159306132
            ],
            [
              -88.97987508674166,
              28.92885459721171
            ],
            [
              -88.97990559240583,
              28.928910891942355
            ],
            [
              -88.98169087072614,
              28.932256381444308
            ],
            [
              -88.98189625262577,
              28.932690184272488
            ],
            [
              -88.98205909420057,
              28.933141680939087
            ],
            [
              -88.98217789492,
              28.933606711053695
            ],
            [
              -88.98225156007527,
              28.934080989519714
            ],
            [
              -88.9822794108667,
              28.934560146020083
            ],
            [
              -88.98226119065853,
              28.935039765288302
            ],
            [
              -88.98219706734392,
              28.935515427793607
            ],
            [
              -88.98096873482439,
              28.94218924065982
            ],
            [
              -88.98087086071921,
              28.942615393083695
            ],
            [
              -88.98073612969503,
              28.94303136517406
            ],
            [
              -88.98056557209512,
              28.943433975822142
            ],
            [
              -88.98036049224321,
              28.94382014609959
            ],
            [
              -88.97840736724321,
              28.947138932720684
            ],
            [
              -88.97810250335911,
              28.94759722735054
            ],
            [
              -88.97774911123702,
              28.94801923441638
            ],
            [
              -88.97735147364956,
              28.94839983959844
            ],
            [
              -88.97561960109097,
              28.94988375683477
            ],
            [
              -88.97520134934463,
              28.95020546125695
            ],
            [
              -88.97475152365182,
              28.950481296542325
            ],
            [
              -88.97427513377991,
              28.95070819067737
            ],
            [
              -88.9647994257721,
              28.954622070071903
            ],
            [
              -88.96431891126798,
              28.954792422186173
            ],
            [
              -88.96382354749818,
              28.95491295752155
            ],
            [
              -88.96331848454247,
              28.95498242292503
            ],
            [
              -88.96280897331883,
              28.955000096195295
            ],
            [
              -88.96230031099188,
              28.954965793591104
            ],
            [
              -88.96179778590069,
              28.954879871741582
            ],
            [
              -88.96130662257814,
              28.954743223938507
            ],
            [
              -88.9608319274338,
              28.95455727084913
            ],
            [
              -88.95473604120333,
              28.951803059423348
            ],
            [
              -88.95424851859147,
              28.951549662342465
            ],
            [
              -88.95379174295077,
              28.9512443028957
            ],
            [
              -88.95337123009149,
              28.95089066846177
            ],
            [
              -88.95299205793145,
              28.950493029365706
            ],
            [
              -88.94930706037286,
              28.94617669940965
            ],
            [
              -88.94920167412867,
              28.946049037307308
            ],
            [
              -88.94546327080836,
              28.94136458906512
            ],
            [
              -88.9451755842159,
              28.940965267956184
            ],
            [
              -88.94492854959665,
              28.940539598107108
            ],
            [
              -88.94472456042874,
              28.940091703763656
            ],
            [
              -88.94456559312995,
              28.93962592450109
            ],
            [
              -88.94445318790854,
              28.93914677317873
            ],
            [
              -88.94438843384034,
              28.93865889221561
            ],
            [
              -88.94437195831699,
              28.93816700861083
            ],
            [
              -88.94440392096712,
              28.93767588814443
            ],
            [
              -88.94448401210985,
              28.937190289202526
            ],
            [
              -88.94461145575515,
              28.936714916674088
            ],
            [
              -88.94752588446609,
              28.927653103319596
            ],
            [
              -88.94769358134558,
              28.92720612412986
            ],
            [
              -88.94790314290756,
              28.92677717589151
            ],
            [
              -88.94903229329819,
              28.924721054065337
            ],
            [
              -88.949213290998,
              28.924417425065688
            ],
            [
              -88.95347049314644,
              28.917817998796156
            ],
            [
              -88.95375040202474,
              28.91742677764068
            ],
            [
              -88.95406661078296,
              28.917064265580386
            ],
            [
              -88.95441619255527,
              28.91673381807001
            ],
            [
              -88.9547959115712,
              28.916438493771
            ],
            [
              -88.95520225310638,
              28.91618102624019
            ],
            [
              -88.95563145601525,
              28.915963798627647
            ],
            [
              -88.95607954754468,
              28.91578882161799
            ],
            [
              -88.95654238010614,
              28.91565771481923
            ],
            [
              -88.95701566966645,
              28.915571691771476
            ],
            [
              -88.96240202220551,
              28.914858343382804
            ]
          ]
        ]
      },
      "properties": {
        "layer": "hourly_backtrack_corridor",
        "step_index": 3,
        "timestamp": "2023-11-17T20:54:16Z",
        "hours_prior": 3,
        "active_particles": 500,
        "centroid_latitude": 28.934862632751464,
        "centroid_longitude": -88.96207015991212
      }
    },
    {
      "type": "Feature",
      "geometry": {
        "type": "Polygon",
        "coordinates": [
          [
            [
              -88.96428142319303,
              28.912068132186313
            ],
            [
              -88.9648039020241,
              28.912052586498046
            ],
            [
              -88.96532514871704,
              28.912091672076368
            ],
            [
              -88.96583946655014,
              28.91218496175374
            ],
            [
              -88.96634123452738,
              28.91233143596431
            ],
            [
              -88.96682496881053,
              28.912529493886762
            ],
            [
              -88.97130342340037,
              28.914642836171918
            ],
            [
              -88.97176072660454,
              28.914888426839116
            ],
            [
              -88.97219010375933,
              28.91518010518131
            ],
            [
              -88.9725869271924,
              28.915514727594378
            ],
            [
              -88.9729469200837,
              28.91588868763846
            ],
            [
              -88.97998885123604,
              28.924008270768343
            ],
            [
              -88.9802864318741,
              28.924386772827614
            ],
            [
              -88.98054622724626,
              28.924792142300603
            ],
            [
              -88.98076582834229,
              28.92522062030896
            ],
            [
              -88.98094319886232,
              28.925668233695315
            ],
            [
              -88.98375081604982,
              28.933888906302737
            ],
            [
              -88.98388377205202,
              28.93434923231464
            ],
            [
              -88.98397205591353,
              28.93482017105329
            ],
            [
              -88.98401485691538,
              28.935297397844238
            ],
            [
              -88.98401178201199,
              28.93577653026928
            ],
            [
              -88.98396285944047,
              28.936253168410595
            ],
            [
              -88.98386853846137,
              28.936722935255595
            ],
            [
              -88.98372968523306,
              28.937181516891453
            ],
            [
              -88.98129590837759,
              28.944019361740086
            ],
            [
              -88.98110444182613,
              28.944482420342652
            ],
            [
              -88.98086758902534,
              28.94492398965826
            ],
            [
              -88.98058772876088,
              28.945339634870095
            ],
            [
              -88.98026767175574,
              28.945725181525113
            ],
            [
              -88.97704043786902,
              28.949238517706753
            ],
            [
              -88.97670764582689,
              28.949568358695004
            ],
            [
              -88.97634543913686,
              28.949865599228133
            ],
            [
              -88.97595699863464,
              28.950127628991844
            ],
            [
              -88.97554573553668,
              28.95035214688665
            ],
            [
              -88.97511526148347,
              28.95053718123573
            ],
            [
              -88.97466935682272,
              28.95068110709984
            ],
            [
              -88.96774186658834,
              28.952563660200425
            ],
            [
              -88.96726254919786,
              28.95266895851822
            ],
            [
              -88.9667752179951,
              28.952726761592302
            ],
            [
              -88.96628456759548,
              28.9527365125874
            ],
            [
              -88.96579532458928,
              28.952698117569103
            ],
            [
              -88.9653122020089,
              28.95261194640874
            ],
            [
              -88.96158905747765,
              28.95175745422124
            ],
            [
              -88.96154752754896,
              28.951747736114857
            ],
            [
              -88.96088377022474,
              28.951589426178334
            ],
            [
              -88.96077401720017,
              28.9515619333859
            ],
            [
              -88.95059640489548,
              28.94888973795133
            ],
            [
              -88.95015384833394,
              28.94875131137789
            ],
            [
              -88.94972601881425,
              28.948572481490906
            ],
            [
              -88.9493165959822,
              28.94835478635778
            ],
            [
              -88.94892910117262,
              28.94810009831537
            ],
            [
              -88.9485668671234,
              28.947810607866515
            ],
            [
              -88.94823300931144,
              28.94748880484014
            ],
            [
              -88.94793039915731,
              28.947137456976883
            ],
            [
              -88.94766163932898,
              28.946759586124514
            ],
            [
              -88.9474290413569,
              28.94635844224786
            ],
            [
              -88.9439881844233,
              28.939734220446102
            ],
            [
              -88.94379488318019,
              28.939316040193734
            ],
            [
              -88.94364089228144,
              28.938881843352245
            ],
            [
              -88.94352751904876,
              28.93843531608077
            ],
            [
              -88.94345572597598,
              28.937980249218917
            ],
            [
              -88.94342612255784,
              28.937520506104022
            ],
            [
              -88.94328879345628,
              28.929982664307147
            ],
            [
              -88.94330178679057,
              28.929520051432316
            ],
            [
              -88.94335749760114,
              28.929060621563586
            ],
            [
              -88.94345544860343,
              28.928608310719316
            ],
            [
              -88.9443023113964,
              28.925419223805253
            ],
            [
              -88.94443808792529,
              28.92498766841943
            ],
            [
              -88.94461231671373,
              28.924570152376496
            ],
            [
              -88.94482357134842,
              28.92417009388558
            ],
            [
              -88.94507012228499,
              28.92379076823062
            ],
            [
              -88.94534995100778,
              28.92343528095556
            ],
            [
              -88.9456607665555,
              28.923106542439225
            ],
            [
              -88.95421331782504,
              28.91484390816188
            ],
            [
              -88.95461718564952,
              28.91449348457277
            ],
            [
              -88.95505616491889,
              28.914188192724666
            ],
            [
              -88.95552523536243,
              28.913931524007324
            ],
            [
              -88.95601903257962,
              28.9137264137449
            ],
            [
              -88.95900975523587,
              28.91266783525369
            ],
            [
              -88.95942102552466,
              28.91254188972785
            ],
            [
              -88.95984159844676,
              28.912451756808714
            ],
            [
              -88.96026836166959,
              28.91239810349979
            ],
            [
              -88.96428142319303,
              28.912068132186313
            ]
          ]
        ]
      },
      "properties": {
        "layer": "hourly_backtrack_corridor",
        "step_index": 4,
        "timestamp": "2023-11-17T19:54:16Z",
        "hours_prior": 4,
        "active_particles": 500,
        "centroid_latitude": 28.933067321777344,
        "centroid_longitude": -88.96370086669921
      }
    },
    {
      "type": "Feature",
      "geometry": {
        "type": "Polygon",
        "coordinates": [
          [
            [
              -88.96136051335591,
              28.911809238927724
            ],
            [
              -88.96178464782926,
              28.911644720170774
            ],
            [
              -88.9622219799866,
              28.911519432274176
            ],
            [
              -88.96266888947908,
              28.91143441240358
            ],
            [
              -88.96312167667422,
              28.91139036437548
            ],
            [
              -88.9635765932824,
              28.911387652830864
            ],
            [
              -88.96463707912224,
              28.911429614500786
            ],
            [
              -88.96523343581728,
              28.9114891581307
            ],
            [
              -88.976273169704,
              28.913264899707848
            ],
            [
              -88.976742142402,
              28.913363596854982
            ],
            [
              -88.97719951169141,
              28.913506739620928
            ],
            [
              -88.97764107569276,
              28.9136930129444
            ],
            [
              -88.97806277773077,
              28.913920705521065
            ],
            [
              -88.9784607436032,
              28.914187725525387
            ],
            [
              -88.9788313171734,
              28.91449161982838
            ],
            [
              -88.98296644900934,
              28.91822811580006
            ],
            [
              -88.98329107549287,
              28.918549578335362
            ],
            [
              -88.98358500488516,
              28.9188993297153
            ],
            [
              -88.9838457832224,
              28.91927444992834
            ],
            [
              -88.98407123331309,
              28.91967180716312
            ],
            [
              -88.98425947291481,
              28.920088083955356
            ],
            [
              -88.9895771609031,
              28.933441431733677
            ],
            [
              -88.98974328521217,
              28.93393077087194
            ],
            [
              -88.98985801477859,
              28.934434643082817
            ],
            [
              -88.98992012406075,
              28.93494766600177
            ],
            [
              -88.98992894960712,
              28.935464359516374
            ],
            [
              -88.98988439714317,
              28.935979204304886
            ],
            [
              -88.98978694257848,
              28.93648670079366
            ],
            [
              -88.98894770918004,
              28.939895132800498
            ],
            [
              -88.98881999170231,
              28.940328473474263
            ],
            [
              -88.98865368149285,
              28.94074851729089
            ],
            [
              -88.98845013628087,
              28.941151835081648
            ],
            [
              -88.9882110177761,
              28.941535134226346
            ],
            [
              -88.98448024385031,
              28.946953911692166
            ],
            [
              -88.9841657659839,
              28.947363634004923
            ],
            [
              -88.9838106984324,
              28.94773872830762
            ],
            [
              -88.98341883003224,
              28.948075192063442
            ],
            [
              -88.98299434231235,
              28.94836943495241
            ],
            [
              -88.98033931301548,
              28.950013569473896
            ],
            [
              -88.97997430811128,
              28.95021896708415
            ],
            [
              -88.97959339361626,
              28.95039309607619
            ],
            [
              -88.97815143804985,
              28.950980559455097
            ],
            [
              -88.97796028589764,
              28.951053909774693
            ],
            [
              -88.97429817652264,
              28.9523737950286
            ],
            [
              -88.97372818213128,
              28.952541698688666
            ],
            [
              -88.97314229413168,
              28.952640797110316
            ],
            [
              -88.96110310956136,
              28.953947330923793
            ],
            [
              -88.96061715981439,
              28.953976230488873
            ],
            [
              -88.96013070292382,
              28.953957736298968
            ],
            [
              -88.95964835015738,
              28.953892023665933
            ],
            [
              -88.95917467387856,
              28.953779715499117
            ],
            [
              -88.95871416420394,
              28.953621876400614
            ],
            [
              -88.95827118643993,
              28.953420002573584
            ],
            [
              -88.95784993970285,
              28.95317600763932
            ],
            [
              -88.95745441711423,
              28.952892204497452
            ],
            [
              -88.95264789855955,
              28.949075599883194
            ],
            [
              -88.95231945738873,
              28.94879066005022
            ],
            [
              -88.95201701395013,
              28.948478262422917
            ],
            [
              -88.94975108377434,
              28.94592432260358
            ],
            [
              -88.94954947976217,
              28.945682131476662
            ],
            [
              -88.9477260544692,
              28.943345629401467
            ],
            [
              -88.9474531337502,
              28.942959583485617
            ],
            [
              -88.94721789491342,
              28.942549486109773
            ],
            [
              -88.9470224411556,
              28.942119003826093
            ],
            [
              -88.94686851996757,
              28.94167198544182
            ],
            [
              -88.94675750751044,
              28.941212427608278
            ],
            [
              -88.94613189715888,
              28.937954676143434
            ],
            [
              -88.94608767209516,
              28.93768469576516
            ],
            [
              -88.94586641965375,
              28.93605582003274
            ],
            [
              -88.94582160997327,
              28.93546573297387
            ],
            [
              -88.94584683279618,
              28.934874484757202
            ],
            [
              -88.94683865408524,
              28.925169894913452
            ],
            [
              -88.94690965822308,
              28.924698585635724
            ],
            [
              -88.94702521651102,
              28.924236178558623
            ],
            [
              -88.94718427887541,
              28.923786875557184
            ],
            [
              -88.94738539992277,
              28.923354759430225
            ],
            [
              -88.94762675207397,
              28.9229437568001
            ],
            [
              -88.94790614217149,
              28.92255760243164
            ],
            [
              -88.9482210314084,
              28.922199805294508
            ],
            [
              -88.95530873892793,
              28.914881308590406
            ],
            [
              -88.9556604874005,
              28.914551524386972
            ],
            [
              -88.956042365546,
              28.914257154397376
            ],
            [
              -88.95645082213278,
              28.91400093608129
            ],
            [
              -88.95688205876607,
              28.913785252111317
            ],
            [
              -88.96136051335591,
              28.911809238927724
            ]
          ]
        ]
      },
      "properties": {
        "layer": "hourly_backtrack_corridor",
        "step_index": 5,
        "timestamp": "2023-11-17T18:54:16Z",
        "hours_prior": 5,
        "active_particles": 500,
        "centroid_latitude": 28.93311359405518,
        "centroid_longitude": -88.96757034301757
      }
    },
    {
      "type": "Feature",
      "geometry": {
        "type": "Polygon",
        "coordinates": [
          [
            [
              -88.96467470052941,
              28.908435264009803
            ],
            [
              -88.96515561585821,
              28.90825147733102
            ],
            [
              -88.96565288072524,
              28.908118117858994
            ],
            [
              -88.96616122298725,
              28.908036599508705
            ],
            [
              -88.96667525305524,
              28.90800778656084
            ],
            [
              -88.96718952103654,
              28.908031984498457
            ],
            [
              -88.96769857451602,
              28.908108936768144
            ],
            [
              -88.96819701636416,
              28.908237827500102
            ],
            [
              -88.96867956195902,
              28.908417290158194
            ],
            [
              -88.96914109521522,
              28.908645422028382
            ],
            [
              -88.97834214501991,
              28.91379907803424
            ],
            [
              -88.97876038624197,
              28.914061270738095
            ],
            [
              -88.97915073551253,
              28.914363426626277
            ],
            [
              -88.97950938816386,
              28.914702600636904
            ],
            [
              -88.97983284846978,
              28.915075486898775
            ],
            [
              -88.98011796371786,
              28.91547845095313
            ],
            [
              -88.98219315903036,
              28.918741924463873
            ],
            [
              -88.9824315399801,
              28.919159962969204
            ],
            [
              -88.98262862897344,
              28.919598981872937
            ],
            [
              -88.98278260032248,
              28.920054914425855
            ],
            [
              -88.98289202774954,
              28.92052353720309
            ],
            [
              -88.98547839249564,
              28.934636009737268
            ],
            [
              -88.98553915402286,
              28.93507794752208
            ],
            [
              -88.98556028370088,
              28.93552354207494
            ],
            [
              -88.98554161333664,
              28.935969246445943
            ],
            [
              -88.98548329154696,
              28.936411512811024
            ],
            [
              -88.98538578257555,
              28.936846820712777
            ],
            [
              -88.98403537974352,
              28.941823093295785
            ],
            [
              -88.98386611914904,
              28.942335593915136
            ],
            [
              -88.98364260316414,
              28.942826864347964
            ],
            [
              -88.98336743625102,
              28.943291180192617
            ],
            [
              -88.98096417697367,
              28.9468884397141
            ],
            [
              -88.98080442059654,
              28.94711382811979
            ],
            [
              -88.9792556535067,
              28.94917567199186
            ],
            [
              -88.97890802713364,
              28.94958978589016
            ],
            [
              -88.97851771813977,
              28.949963942682572
            ],
            [
              -88.97808929055513,
              28.950293767212795
            ],
            [
              -88.97762775414486,
              28.95057540271838
            ],
            [
              -88.97115039818783,
              28.95406203601916
            ],
            [
              -88.97068171779765,
              28.954283786713724
            ],
            [
              -88.97019259306546,
              28.954455809023454
            ],
            [
              -88.96968828373888,
              28.95457625312585
            ],
            [
              -88.96917421285131,
              28.954643823838854
            ],
            [
              -88.96865590840608,
              28.954657794548428
            ],
            [
              -88.95511373311311,
              28.95432019384042
            ],
            [
              -88.95459857770209,
              28.954280648043
            ],
            [
              -88.95409025367087,
              28.95418815130317
            ],
            [
              -88.95359418888246,
              28.954043691297297
            ],
            [
              -88.9531156802962,
              28.95384881056336
            ],
            [
              -88.95265983740697,
              28.95360559002979
            ],
            [
              -88.95223152768637,
              28.9533166267954
            ],
            [
              -88.95183532460788,
              28.952985006397668
            ],
            [
              -88.95147545881161,
              28.952614269865514
            ],
            [
              -88.94666894025693,
              28.947121105803014
            ],
            [
              -88.94638819886292,
              28.94676951763723
            ],
            [
              -88.9461401995031,
              28.946394116137277
            ],
            [
              -88.94137182792107,
              28.938417584154855
            ],
            [
              -88.94113194209031,
              28.937965204015903
            ],
            [
              -88.94093958146857,
              28.93749066171734
            ],
            [
              -88.9407967634802,
              28.93699893412597
            ],
            [
              -88.94070498596027,
              28.93649517834312
            ],
            [
              -88.94066521144575,
              28.935984677618425
            ],
            [
              -88.94067785708059,
              28.935472785940586
            ],
            [
              -88.9407427902409,
              28.934964871886233
            ],
            [
              -88.94085932992591,
              28.934466262315787
            ],
            [
              -88.94102625389999,
              28.933982186506853
            ],
            [
              -88.94540552636093,
              28.92312174339162
            ],
            [
              -88.94564987875577,
              28.922603532016787
            ],
            [
              -88.9489534065878,
              28.916526719272646
            ],
            [
              -88.94919627848769,
              28.916125939209678
            ],
            [
              -88.94947560565426,
              28.915749657729087
            ],
            [
              -88.94978893435011,
              28.915401180259256
            ],
            [
              -88.95013351215287,
              28.915083567985448
            ],
            [
              -88.95050631213373,
              28.91479961095894
            ],
            [
              -88.95090405944737,
              28.914551803587955
            ],
            [
              -88.95132326009973,
              28.914342322725624
            ],
            [
              -88.96467470052941,
              28.908435264009803
            ]
          ]
        ]
      },
      "properties": {
        "layer": "hourly_backtrack_corridor",
        "step_index": 6,
        "timestamp": "2023-11-17T17:54:16Z",
        "hours_prior": 6,
        "active_particles": 500,
        "centroid_latitude": 28.931562423706055,
        "centroid_longitude": -88.96285247802734
      }
    }
  ]
}